{
  "type": "FeatureCollection",
  "features": [
    {
      "type": "Feature",
      "properties": {
        "norad_id": 31990,
        "name": "FENGYUN 1C DEB",
        "group": "fengyun-1c-debris",
        "lat": 62.46973956413507,
        "lon": -10.90949035834537,
        "alt_km": 1150.915905184308,
        "timestamp": "2025-12-10T11:33:53.670387+00:00",
        "meta_object_name": "FENGYUN 1C DEB",
        "meta_object_id": "1999-025CPT",
        "meta_epoch": "2025-12-09T21:41:23.356320",
        "meta_mean_motion": 13.57200285,
        "meta_eccentricity": 0.0260094,
        "meta_inclination": 99.1608,
        "meta_ra_of_asc_node": 6.5848,
        "meta_arg_of_pericenter": 191.8091,
        "meta_mean_anomaly": 291.3802,
        "meta_ephemeris_type": 0,
        "meta_classification_type": "U",
        "meta_norad_cat_id": 31990,
        "meta_element_set_no": 999,
        "meta_rev_at_epoch": 62733,
        "meta_bstar": 0.00036406,
        "meta_mean_motion_dot": 2.83e-06,
        "meta_mean_motion_ddot": 0,
        "tle_line1": "1 31990U 99025CPT 25343.90374255  .00000283  00000+0  36406-3 0  9993",
        "tle_line2": "2 31990  99.1608   6.5848 0260094 191.8091 291.3802 13.57200285627337"
      },
      "geometry": {
        "type": "Point",
        "coordinates": [
          -10.90949035834537,
          62.46973956413507
        ]
      }
    },
    {
      "type": "Feature",
      "properties": {
        "norad_id": 31991,
        "name": "FENGYUN 1C DEB",
        "group": "fengyun-1c-debris",
        "lat": 51.45986828429489,
        "lon": 159.85655585075358,
        "alt_km": 845.8567139716688,
        "timestamp": "2025-12-10T11:33:53.670396+00:00",
        "meta_object_name": "FENGYUN 1C DEB",
        "meta_object_id": "1999-025CPU",
        "meta_epoch": "2025-12-09T19:26:30.848064",
        "meta_mean_motion": 13.61277165,
        "meta_eccentricity": 0.0244633,
        "meta_inclination": 100.4866,
        "meta_ra_of_asc_node": 172.5802,
        "meta_arg_of_pericenter": 60.5436,
        "meta_mean_anomaly": 301.9872,
        "meta_ephemeris_type": 0,
        "meta_classification_type": "U",
        "meta_norad_cat_id": 31991,
        "meta_element_set_no": 999,
        "meta_rev_at_epoch": 62047,
        "meta_bstar": 0.00022502,
        "meta_mean_motion_dot": 1.6e-06,
        "meta_mean_motion_ddot": 0,
        "tle_line1": "1 31991U 99025CPU 25343.81007926  .00000160  00000+0  22502-3 0  9998",
        "tle_line2": "2 31991 100.4866 172.5802 0244633  60.5436 301.9872 13.61277165620479"
      },
      "geometry": {
        "type": "Point",
        "coordinates": [
          159.85655585075358,
          51.45986828429489
        ]
      }
    },
    {
      "type": "Feature",
      "properties": {
        "norad_id": 31992,
        "name": "FENGYUN 1C DEB",
        "group": "fengyun-1c-debris",
        "lat": -63.64955614467342,
        "lon": 105.60165030390324,
        "alt_km": 1528.9754632352751,
        "timestamp": "2025-12-10T11:33:53.670407+00:00",
        "meta_object_name": "FENGYUN 1C DEB",
        "meta_object_id": "1999-025CPV",
        "meta_epoch": "2025-11-28T04:18:18.013824",
        "meta_mean_motion": 13.22945767,
        "meta_eccentricity": 0.05423475,
        "meta_inclination": 99.1642,
        "meta_ra_of_asc_node": 293.7613,
        "meta_arg_of_pericenter": 64.8199,
        "meta_mean_anomaly": 300.815,
        "meta_ephemeris_type": 0,
        "meta_classification_type": "U",
        "meta_norad_cat_id": 31992,
        "meta_element_set_no": 999,
        "meta_rev_at_epoch": 53682,
        "meta_bstar": 0.0012217074,
        "meta_mean_motion_dot": 1.091e-05,
        "meta_mean_motion_ddot": 0,
        "tle_line1": "1 31992U 99025CPV 25332.17937516  .00001091  00000+0  12217-2 0  9998",
        "tle_line2": "2 31992  99.1642 293.7613 0542347  64.8199 300.8150 13.22945767536827"
      },
      "geometry": {
        "type": "Point",
        "coordinates": [
          105.60165030390324,
          -63.64955614467342
        ]
      }
    },
    {
      "type": "Feature",
      "properties": {
        "norad_id": 31993,
        "name": "FENGYUN 1C DEB",
        "group": "fengyun-1c-debris",
        "lat": -70.2354951349448,
        "lon": 110.03977431836104,
        "alt_km": 1268.3186928143778,
        "timestamp": "2025-12-10T11:33:53.670417+00:00",
        "meta_object_name": "FENGYUN 1C DEB",
        "meta_object_id": "1999-025CPW",
        "meta_epoch": "2025-12-09T03:34:59.373984",
        "meta_mean_motion": 13.27441178,
        "meta_eccentricity": 0.04214422,
        "meta_inclination": 99.2418,
        "meta_ra_of_asc_node": 315.7897,
        "meta_arg_of_pericenter": 144.1476,
        "meta_mean_anomaly": 218.8727,
        "meta_ephemeris_type": 0,
        "meta_classification_type": "U",
        "meta_norad_cat_id": 31993,
        "meta_element_set_no": 999,
        "meta_rev_at_epoch": 88895,
        "meta_bstar": 0.0017263058,
        "meta_mean_motion_dot": 1.223e-05,
        "meta_mean_motion_ddot": 0,
        "tle_line1": "1 31993U 99025CPW 25343.14929831  .00001223  00000+0  17263-2 0  9992",
        "tle_line2": "2 31993  99.2418 315.7897 0421442 144.1476 218.8727 13.27441178888955"
      },
      "geometry": {
        "type": "Point",
        "coordinates": [
          110.03977431836104,
          -70.2354951349448
        ]
      }
    },
    {
      "type": "Feature",
      "properties": {
        "norad_id": 31994,
        "name": "FENGYUN 1C DEB",
        "group": "fengyun-1c-debris",
        "lat": -71.1311721117062,
        "lon": 132.74458056882418,
        "alt_km": 936.0361036671911,
        "timestamp": "2025-12-10T11:33:53.670426+00:00",
        "meta_object_name": "FENGYUN 1C DEB",
        "meta_object_id": "1999-025CPX",
        "meta_epoch": "2025-12-09T17:09:50.911776",
        "meta_mean_motion": 13.95756892,
        "meta_eccentricity": 0.016214,
        "meta_inclination": 98.539,
        "meta_ra_of_asc_node": 338.1117,
        "meta_arg_of_pericenter": 154.4292,
        "meta_mean_anomaly": 206.5004,
        "meta_ephemeris_type": 0,
        "meta_classification_type": "U",
        "meta_norad_cat_id": 31994,
        "meta_element_set_no": 999,
        "meta_rev_at_epoch": 56754,
        "meta_bstar": 0.00031339,
        "meta_mean_motion_dot": 4.39e-06,
        "meta_mean_motion_ddot": 0,
        "tle_line1": "1 31994U 99025CPX 25343.71517259  .00000439  00000+0  31339-3 0  9992",
        "tle_line2": "2 31994  98.5390 338.1117 0162140 154.4292 206.5004 13.95756892567546"
      },
      "geometry": {
        "type": "Point",
        "coordinates": [
          132.74458056882418,
          -71.1311721117062
        ]
      }
    },
    {
      "type": "Feature",
      "properties": {
        "norad_id": 31997,
        "name": "FENGYUN 1C DEB",
        "group": "fengyun-1c-debris",
        "lat": 37.691397921422926,
        "lon": -142.77089404536846,
        "alt_km": 1186.4034603344344,
        "timestamp": "2025-12-10T11:33:53.670436+00:00",
        "meta_object_name": "FENGYUN 1C DEB",
        "meta_object_id": "1999-025CQA",
        "meta_epoch": "2025-12-09T22:29:37.873824",
        "meta_mean_motion": 13.60654901,
        "meta_eccentricity": 0.0289701,
        "meta_inclination": 102.5101,
        "meta_ra_of_asc_node": 26.6566,
        "meta_arg_of_pericenter": 280.1261,
        "meta_mean_anomaly": 76.7309,
        "meta_ephemeris_type": 0,
        "meta_classification_type": "U",
        "meta_norad_cat_id": 31997,
        "meta_element_set_no": 999,
        "meta_rev_at_epoch": 61645,
        "meta_bstar": 0.0028773,
        "meta_mean_motion_dot": 2.799e-05,
        "meta_mean_motion_ddot": 0,
        "tle_line1": "1 31997U 99025CQA 25343.93724391  .00002799  00000+0  28773-2 0  9994",
        "tle_line2": "2 31997 102.5101  26.6566 0289701 280.1261  76.7309 13.60654901616458"
      },
      "geometry": {
        "type": "Point",
        "coordinates": [
          -142.77089404536846,
          37.691397921422926
        ]
      }
    },
    {
      "type": "Feature",
      "properties": {
        "norad_id": 32086,
        "name": "FENGYUN 1C DEB",
        "group": "fengyun-1c-debris",
        "lat": -34.58606554525435,
        "lon": 45.942369264064126,
        "alt_km": 1231.2293270888285,
        "timestamp": "2025-12-10T11:33:53.670446+00:00",
        "meta_object_name": "FENGYUN 1C DEB",
        "meta_object_id": "1999-025CQC",
        "meta_epoch": "2025-12-08T22:54:23.642784",
        "meta_mean_motion": 13.68864745,
        "meta_eccentricity": 0.0300639,
        "meta_inclination": 99.2693,
        "meta_ra_of_asc_node": 38.0068,
        "meta_arg_of_pericenter": 145.3801,
        "meta_mean_anomaly": 216.7328,
        "meta_ephemeris_type": 0,
        "meta_classification_type": "U",
        "meta_norad_cat_id": 32086,
        "meta_element_set_no": 999,
        "meta_rev_at_epoch": 61729,
        "meta_bstar": 0.0024856,
        "meta_mean_motion_dot": 2.899e-05,
        "meta_mean_motion_ddot": 0,
        "tle_line1": "1 32086U 99025CQC 25342.95444031  .00002899  00000+0  24856-2 0  9994",
        "tle_line2": "2 32086  99.2693  38.0068 0300639 145.3801 216.7328 13.68864745617293"
      },
      "geometry": {
        "type": "Point",
        "coordinates": [
          45.942369264064126,
          -34.58606554525435
        ]
      }
    }
  ]
}